[{"OBJECT_NAME":"STARLINK-30997","OBJECT_ID":"2023-186K","EPOCH":"2026-03-09T00:15:15.075360","MEAN_MOTION":15.26763988,"ECCENTRICITY":4.996e-5,"INCLINATION":42.9998,"RA_OF_ASC_NODE":67.3412,"ARG_OF_PERICENTER":244.0827,"MEAN_ANOMALY":115.9973,"EPHEMERIS_TYPE":0,"CLASSIFICATION_TYPE":"U","NORAD_CAT_ID":58482,"ELEMENT_SET_NO":999,"REV_AT_EPOCH":12579,"BSTAR":0.00089142251,"MEAN_MOTION_DOT":0.00023746,"MEAN_MOTION_DDOT":0},{"OBJECT_NAME":"LIME","OBJECT_ID":"2025-009AR","EPOCH":"2026-03-09T17:44:15.459648","MEAN_MOTION":15.28703313,"ECCENTRICITY":0.00016347,"INCLINATION":97.3985,"RA_OF_ASC_NODE":151.4831,"ARG_OF_PERICENTER":35.9029,"MEAN_ANOMALY":324.232,"EPHEMERIS_TYPE":0,"CLASSIFICATION_TYPE":"U","NORAD_CAT_ID":62648,"ELEMENT_SET_NO":999,"REV_AT_EPOCH":6376,"BSTAR":0.00047722827,"MEAN_MOTION_DOT":0.00013254,"MEAN_MOTION_DDOT":0}]
